{
  "type": "FeatureCollection",
  "features": [
    {
      "type": "Feature",
      "id": "node/250180953",
      "properties": {
        "name": "Fred Bolsby Fire Station (Station 4-4)",
        "tags": {
          "amenity": "fire_station",
          "name": "Fred Bolsby Fire Station (Station 4-4)"
        }
      },
      "geometry": {
        "type": "Point",
        "coordinates": [
          -79.4244887,
          44.010127
        ]
      }
    },
    {
      "type": "Feature",
      "id": "node/255724462",
      "properties": {
        "name": "Station 4-3",
        "tags": {
          "addr:city": "Aurora",
          "addr:housenumber": "220",
          "addr:street": "Edward Street",
          "amenity": "fire_station",
          "name": "Station 4-3"
        }
      },
      "geometry": {
        "type": "Point",
        "coordinates": [
          -79.4581823,
          43.9892926
        ]
      }
    },
    {
      "type": "Feature",
      "id": "node/267130380",
      "properties": {
        "name": "Toronto Fire Station #224",
        "tags": {
          "amenity": "fire_station",
          "check_date": "2024-11-17",
          "created_by": "Potlatch 0.9b",
          "name": "Toronto Fire Station #224"
        }
      },
      "geometry": {
        "type": "Point",
        "coordinates": [
          -79.3165712,
          43.6952274
        ]
      }
    },
    {
      "type": "Feature",
      "id": "node/380199492",
      "properties": {
        "name": "Toronto Fire Station",
        "tags": {
          "amenity": "fire_station",
          "name": "Toronto Fire Station"
        }
      },
      "geometry": {
        "type": "Point",
        "coordinates": [
          -79.1481339,
          43.7774204
        ]
      }
    },
    {
      "type": "Feature",
      "id": "node/410801436",
      "properties": {
        "name": "Toronto Fire Station 222",
        "tags": {
          "amenity": "fire_station",
          "name": "Toronto Fire Station 222"
        }
      },
      "geometry": {
        "type": "Point",
        "coordinates": [
          -79.2840196,
          43.7204081
        ]
      }
    },
    {
      "type": "Feature",
      "id": "node/438066943",
      "properties": {
        "name": "Toronto Fire Station 225",
        "tags": {
          "addr:city": "Scarborough",
          "addr:housenumber": "3600",
          "addr:street": "Danforth Avenue",
          "amenity": "fire_station",
          "check_date": "2024-09-19",
          "name": "Toronto Fire Station 225"
        }
      },
      "geometry": {
        "type": "Point",
        "coordinates": [
          -79.2683603,
          43.6958276
        ]
      }
    },
    {
      "type": "Feature",
      "id": "node/497222830",
      "properties": {
        "name": "Peterborough Fire Station 2",
        "tags": {
          "amenity": "fire_station",
          "name": "Peterborough Fire Station 2"
        }
      },
      "geometry": {
        "type": "Point",
        "coordinates": [
          -78.3098576,
          44.3455895
        ]
      }
    },
    {
      "type": "Feature",
      "id": "node/502030808",
      "properties": {
        "name": "Toronto Fire Station 343",
        "tags": {
          "amenity": "fire_station",
          "name": "Toronto Fire Station 343"
        }
      },
      "geometry": {
        "type": "Point",
        "coordinates": [
          -79.430809,
          43.6801003
        ]
      }
    },
    {
      "type": "Feature",
      "id": "node/618407561",
      "properties": {
        "name": "Toronto Fire Station 223",
        "tags": {
          "amenity": "fire_station",
          "name": "Toronto Fire Station 223"
        }
      },
      "geometry": {
        "type": "Point",
        "coordinates": [
          -79.2331645,
          43.7239969
        ]
      }
    },
    {
      "type": "Feature",
      "id": "node/872692778",
      "properties": {
        "name": "Stirling Fire Station 2",
        "tags": {
          "amenity": "fire_station",
          "building": "yes",
          "name": "Stirling Fire Station 2",
          "source": "CanVec 6.0 - NRCan"
        }
      },
      "geometry": {
        "type": "Point",
        "coordinates": [
          -77.6107825,
          44.4011145
        ]
      }
    },
    {
      "type": "Feature",
      "id": "node/892407332",
      "properties": {
        "name": "Havelock-Belmont-Methuen Fire Station 2",
        "tags": {
          "amenity": "fire_station",
          "building": "yes",
          "name": "Havelock-Belmont-Methuen Fire Station 2",
          "source": "CanVec 6.0 - NRCan"
        }
      },
      "geometry": {
        "type": "Point",
        "coordinates": [
          -77.789928,
          44.5394812
        ]
      }
    },
    {
      "type": "Feature",
      "id": "node/911338555",
      "properties": {
        "name": "Unnamed Fire Station",
        "tags": {
          "amenity": "fire_station",
          "building": "yes",
          "source": "CanVec 6.0 - NRCan"
        }
      },
      "geometry": {
        "type": "Point",
        "coordinates": [
          -78.557668,
          44.2985489
        ]
      }
    },
    {
      "type": "Feature",
      "id": "node/911781124",
      "properties": {
        "name": "Unnamed Fire Station",
        "tags": {
          "amenity": "fire_station",
          "building": "yes",
          "source": "CanVec 6.0 - NRCan"
        }
      },
      "geometry": {
        "type": "Point",
        "coordinates": [
          -78.9920192,
          44.399151
        ]
      }
    },
    {
      "type": "Feature",
      "id": "node/911815211",
      "properties": {
        "name": "Unnamed Fire Station",
        "tags": {
          "amenity": "fire_station",
          "building": "yes",
          "source": "CanVec 6.0 - NRCan"
        }
      },
      "geometry": {
        "type": "Point",
        "coordinates": [
          -78.8587189,
          44.2855216
        ]
      }
    },
    {
      "type": "Feature",
      "id": "node/915210347",
      "properties": {
        "name": "Pontypool Station 8",
        "tags": {
          "amenity": "fire_station",
          "name": "Pontypool Station 8",
          "source": "CanVec 6.0 - NRCan"
        }
      },
      "geometry": {
        "type": "Point",
        "coordinates": [
          -78.6316139,
          44.1040562
        ]
      }
    },
    {
      "type": "Feature",
      "id": "node/915888307",
      "properties": {
        "name": "Unnamed Fire Station",
        "tags": {
          "amenity": "fire_station",
          "building": "yes",
          "source": "CanVec 6.0 - NRCan"
        }
      },
      "geometry": {
        "type": "Point",
        "coordinates": [
          -78.7249499,
          44.212838
        ]
      }
    },
    {
      "type": "Feature",
      "id": "node/916247455",
      "properties": {
        "name": "Unnamed Fire Station",
        "tags": {
          "amenity": "fire_station",
          "building": "yes",
          "source": "CanVec 6.0 - NRCan"
        }
      },
      "geometry": {
        "type": "Point",
        "coordinates": [
          -78.9472528,
          44.0998629
        ]
      }
    },
    {
      "type": "Feature",
      "id": "node/917291161",
      "properties": {
        "name": "Unnamed Fire Station",
        "tags": {
          "amenity": "fire_station",
          "building": "yes",
          "source": "CanVec 6.0 - NRCan"
        }
      },
      "geometry": {
        "type": "Point",
        "coordinates": [
          -78.147966,
          44.0133665
        ]
      }
    },
    {
      "type": "Feature",
      "id": "node/917866686",
      "properties": {
        "name": "Unnamed Fire Station",
        "tags": {
          "amenity": "fire_station",
          "building": "yes",
          "source": "CanVec 6.0 - NRCan"
        }
      },
      "geometry": {
        "type": "Point",
        "coordinates": [
          -78.1618322,
          44.2430539
        ]
      }
    },
    {
      "type": "Feature",
      "id": "node/924825934",
      "properties": {
        "name": "Unnamed Fire Station",
        "tags": {
          "amenity": "fire_station",
          "building": "yes",
          "source": "CanVec 6.0 - NRCan"
        }
      },
      "geometry": {
        "type": "Point",
        "coordinates": [
          -78.0059993,
          44.6219799
        ]
      }
    },
    {
      "type": "Feature",
      "id": "node/925072616",
      "properties": {
        "name": "Unnamed Fire Station",
        "tags": {
          "amenity": "fire_station",
          "building": "yes",
          "source": "CanVec 6.0 - NRCan"
        }
      },
      "geometry": {
        "type": "Point",
        "coordinates": [
          -78.3365944,
          44.7278293
        ]
      }
    },
    {
      "type": "Feature",
      "id": "node/925122674",
      "properties": {
        "name": "Unnamed Fire Station",
        "tags": {
          "amenity": "fire_station",
          "building": "yes",
          "source": "CanVec 6.0 - NRCan"
        }
      },
      "geometry": {
        "type": "Point",
        "coordinates": [
          -78.3669457,
          44.551908
        ]
      }
    },
    {
      "type": "Feature",
      "id": "node/925159696",
      "properties": {
        "name": "Unnamed Fire Station",
        "tags": {
          "amenity": "fire_station",
          "building": "yes",
          "source": "CanVec 6.0 - NRCan"
        }
      },
      "geometry": {
        "type": "Point",
        "coordinates": [
          -78.4246426,
          44.5787592
        ]
      }
    },
    {
      "type": "Feature",
      "id": "node/1393201511",
      "properties": {
        "name": "Unnamed Fire Station",
        "tags": {
          "amenity": "fire_station",
          "building": "yes",
          "source": "NRCan-CanVec-7.0"
        }
      },
      "geometry": {
        "type": "Point",
        "coordinates": [
          -78.5951742,
          44.7477163
        ]
      }
    },
    {
      "type": "Feature",
      "id": "node/1778194468",
      "properties": {
        "name": "Oshawa Station #6",
        "tags": {
          "addr:housenumber": "2339",
          "addr:street": "Simcoe Street North",
          "amenity": "fire_station",
          "name": "Oshawa Station #6"
        }
      },
      "geometry": {
        "type": "Point",
        "coordinates": [
          -78.8993092,
          43.956721
        ]
      }
    },
    {
      "type": "Feature",
      "id": "node/2276413257",
      "properties": {
        "name": "Kawartha Lakes Fire Station 22 (Fenelon Falls)",
        "tags": {
          "addr:housenumber": "9",
          "addr:postcode": "K0M 1N0",
          "addr:street": "John Street",
          "amenity": "fire_station",
          "name": "Kawartha Lakes Fire Station 22 (Fenelon Falls)"
        }
      },
      "geometry": {
        "type": "Point",
        "coordinates": [
          -78.7391747,
          44.5387763
        ]
      }
    },
    {
      "type": "Feature",
      "id": "node/2413633055",
      "properties": {
        "name": "Fire Station 51",
        "tags": {
          "addr:housenumber": "100",
          "addr:street": "weldon Road",
          "amenity": "fire_station",
          "name": "Fire Station 51"
        }
      },
      "geometry": {
        "type": "Point",
        "coordinates": [
          -79.2599695,
          43.9657357
        ]
      }
    },
    {
      "type": "Feature",
      "id": "node/2694848146",
      "properties": {
        "name": "Unnamed Fire Station",
        "tags": {
          "amenity": "fire_station"
        }
      },
      "geometry": {
        "type": "Point",
        "coordinates": [
          -79.1215924,
          43.8137339
        ]
      }
    },
    {
      "type": "Feature",
      "id": "node/3384485250",
      "properties": {
        "name": "Station #7 Frankford Ward",
        "tags": {
          "addr:housenumber": "18",
          "addr:street": "Scott Avenue",
          "amenity": "fire_station",
          "name": "Station #7 Frankford Ward"
        }
      },
      "geometry": {
        "type": "Point",
        "coordinates": [
          -77.5988014,
          44.2011723
        ]
      }
    },
    {
      "type": "Feature",
      "id": "node/4060811999",
      "properties": {
        "name": "Toronto Fire Station 243",
        "tags": {
          "amenity": "fire_station",
          "name": "Toronto Fire Station 243"
        }
      },
      "geometry": {
        "type": "Point",
        "coordinates": [
          -79.2630374,
          43.7892319
        ]
      }
    },
    {
      "type": "Feature",
      "id": "node/4314426648",
      "properties": {
        "name": "Orillia Fire Station",
        "tags": {
          "amenity": "fire_station",
          "name": "Orillia Fire Station"
        }
      },
      "geometry": {
        "type": "Point",
        "coordinates": [
          -79.399511,
          44.5965636
        ]
      }
    },
    {
      "type": "Feature",
      "id": "node/4945495870",
      "properties": {
        "name": "Toronto Fire Station 421",
        "tags": {
          "amenity": "fire_station",
          "name": "Toronto Fire Station 421"
        }
      },
      "geometry": {
        "type": "Point",
        "coordinates": [
          -79.4852713,
          43.6841961
        ]
      }
    },
    {
      "type": "Feature",
      "id": "node/5158212975",
      "properties": {
        "name": "Unnamed Fire Station",
        "tags": {
          "amenity": "fire_station"
        }
      },
      "geometry": {
        "type": "Point",
        "coordinates": [
          -79.2259766,
          43.7954069
        ]
      }
    },
    {
      "type": "Feature",
      "id": "node/6878356397",
      "properties": {
        "name": "Brighton District Fire Department Station 2",
        "tags": {
          "amenity": "fire_station",
          "name": "Brighton District Fire Department Station 2"
        }
      },
      "geometry": {
        "type": "Point",
        "coordinates": [
          -77.8025475,
          44.1571889
        ]
      }
    },
    {
      "type": "Feature",
      "id": "node/7057009615",
      "properties": {
        "name": "Stirling-Rawdon Fire Station 1",
        "tags": {
          "amenity": "fire_station",
          "name": "Stirling-Rawdon Fire Station 1"
        }
      },
      "geometry": {
        "type": "Point",
        "coordinates": [
          -77.5540569,
          44.3067328
        ]
      }
    },
    {
      "type": "Feature",
      "id": "node/7361587916",
      "properties": {
        "name": "Alnwick/Haldimand Fire Station 3",
        "tags": {
          "amenity": "fire_station",
          "name": "Alnwick/Haldimand Fire Station 3"
        }
      },
      "geometry": {
        "type": "Point",
        "coordinates": [
          -78.0590764,
          44.1896372
        ]
      }
    },
    {
      "type": "Feature",
      "id": "node/7361615223",
      "properties": {
        "name": "Cramahe Township Fire Station 2",
        "tags": {
          "amenity": "fire_station",
          "name": "Cramahe Township Fire Station 2"
        }
      },
      "geometry": {
        "type": "Point",
        "coordinates": [
          -77.9345,
          44.095259
        ]
      }
    },
    {
      "type": "Feature",
      "id": "node/7370548724",
      "properties": {
        "name": "Asphodel-Norwood Fire Station 1",
        "tags": {
          "amenity": "fire_station",
          "name": "Asphodel-Norwood Fire Station 1"
        }
      },
      "geometry": {
        "type": "Point",
        "coordinates": [
          -77.9754592,
          44.3810814
        ]
      }
    },
    {
      "type": "Feature",
      "id": "node/7646541497",
      "properties": {
        "name": "Unnamed Fire Station",
        "tags": {
          "amenity": "fire_station"
        }
      },
      "geometry": {
        "type": "Point",
        "coordinates": [
          -78.4306712,
          44.4081738
        ]
      }
    },
    {
      "type": "Feature",
      "id": "node/7646565361",
      "properties": {
        "name": "Unnamed Fire Station",
        "tags": {
          "amenity": "fire_station"
        }
      },
      "geometry": {
        "type": "Point",
        "coordinates": [
          -77.8863648,
          44.4358316
        ]
      }
    },
    {
      "type": "Feature",
      "id": "node/7647266963",
      "properties": {
        "name": "Unnamed Fire Station",
        "tags": {
          "amenity": "fire_station"
        }
      },
      "geometry": {
        "type": "Point",
        "coordinates": [
          -78.1323975,
          44.5902862
        ]
      }
    },
    {
      "type": "Feature",
      "id": "node/7647285823",
      "properties": {
        "name": "Unnamed Fire Station",
        "tags": {
          "amenity": "fire_station"
        }
      },
      "geometry": {
        "type": "Point",
        "coordinates": [
          -78.2403173,
          44.4890032
        ]
      }
    },
    {
      "type": "Feature",
      "id": "node/7647325946",
      "properties": {
        "name": "Kawartha Lakes Fire and Rescue - Station 20",
        "tags": {
          "amenity": "fire_station",
          "name": "Kawartha Lakes Fire and Rescue - Station 20"
        }
      },
      "geometry": {
        "type": "Point",
        "coordinates": [
          -78.6970836,
          44.6736449
        ]
      }
    },
    {
      "type": "Feature",
      "id": "node/7647350652",
      "properties": {
        "name": "Unnamed Fire Station",
        "tags": {
          "amenity": "fire_station"
        }
      },
      "geometry": {
        "type": "Point",
        "coordinates": [
          -78.6503917,
          44.7764611
        ]
      }
    },
    {
      "type": "Feature",
      "id": "node/7647367936",
      "properties": {
        "name": "Unnamed Fire Station",
        "tags": {
          "amenity": "fire_station"
        }
      },
      "geometry": {
        "type": "Point",
        "coordinates": [
          -78.977652,
          44.5623017
        ]
      }
    },
    {
      "type": "Feature",
      "id": "node/7693073072",
      "properties": {
        "name": "Durham College Pre-Service Firefighter Student",
        "tags": {
          "amenity": "fire_station",
          "name": "Durham College Pre-Service Firefighter Student"
        }
      },
      "geometry": {
        "type": "Point",
        "coordinates": [
          -78.8981022,
          43.9446009
        ]
      }
    },
    {
      "type": "Feature",
      "id": "node/7707566024",
      "properties": {
        "name": "Unnamed Fire Station",
        "tags": {
          "amenity": "fire_station"
        }
      },
      "geometry": {
        "type": "Point",
        "coordinates": [
          -79.1289184,
          43.9701869
        ]
      }
    },
    {
      "type": "Feature",
      "id": "node/7824789502",
      "properties": {
        "name": "Unnamed Fire Station",
        "tags": {
          "amenity": "fire_station"
        }
      },
      "geometry": {
        "type": "Point",
        "coordinates": [
          -78.3253366,
          44.0897004
        ]
      }
    },
    {
      "type": "Feature",
      "id": "node/7855613624",
      "properties": {
        "name": "Peterborough Fire Department Headquarters",
        "tags": {
          "amenity": "fire_station",
          "name": "Peterborough Fire Department Headquarters"
        }
      },
      "geometry": {
        "type": "Point",
        "coordinates": [
          -78.3221674,
          44.3009706
        ]
      }
    },
    {
      "type": "Feature",
      "id": "node/7990327543",
      "properties": {
        "name": "Vaughan Fire Station 7-8",
        "tags": {
          "addr:city": "Thornhill",
          "addr:housenumber": "111",
          "addr:postcode": "L4J 8X9",
          "addr:province": "Ontario",
          "addr:street": "Racco Parkway",
          "amenity": "fire_station",
          "name": "Vaughan Fire Station 7-8",
          "operator": "City of Vaughan"
        }
      },
      "geometry": {
        "type": "Point",
        "coordinates": [
          -79.4738316,
          43.8154104
        ]
      }
    },
    {
      "type": "Feature",
      "id": "node/9321490816",
      "properties": {
        "name": "Otonabee-South Monaghan Fire & Emergency Services Station 2",
        "tags": {
          "amenity": "fire_station",
          "name": "Otonabee-South Monaghan Fire & Emergency Services Station 2"
        }
      },
      "geometry": {
        "type": "Point",
        "coordinates": [
          -78.3069212,
          44.2722902
        ]
      }
    },
    {
      "type": "Feature",
      "id": "node/10671717971",
      "properties": {
        "name": "Quinte West Fire Station 5",
        "tags": {
          "amenity": "fire_station",
          "name": "Quinte West Fire Station 5"
        }
      },
      "geometry": {
        "type": "Point",
        "coordinates": [
          -77.5922835,
          44.1710929
        ]
      }
    },
    {
      "type": "Feature",
      "id": "node/11819155144",
      "properties": {
        "name": "Toronto Fire Station 321",
        "tags": {
          "amenity": "fire_station",
          "name": "Toronto Fire Station 321",
          "source": "Bing",
          "wikidata": "Q112032410"
        }
      },
      "geometry": {
        "type": "Point",
        "coordinates": [
          -79.364734,
          43.708758
        ]
      }
    },
    {
      "type": "Feature",
      "id": "node/31372887",
      "properties": {
        "name": "Fire Station 114, EMS Station 22",
        "tags": {
          "addr:city": "Toronto",
          "addr:housenumber": "12",
          "addr:postcode": "M2N 6N8",
          "addr:street": "Canterbury Place",
          "amenity": "fire_station",
          "building": "public",
          "emergency": "ambulance_station",
          "name": "Fire Station 114, EMS Station 22",
          "opendata:type": "103005",
          "wikidata": "Q124858414"
        }
      },
      "geometry": {
        "type": "Polygon",
        "coordinates": []
      }
    },
    {
      "type": "Feature",
      "id": "node/43806314",
      "properties": {
        "name": "Fire Station 233",
        "tags": {
          "addr:city": "North York",
          "addr:housenumber": "59",
          "addr:street": "Curlew Drive",
          "amenity": "fire_station",
          "building": "yes",
          "name": "Fire Station 233"
        }
      },
      "geometry": {
        "type": "Polygon",
        "coordinates": []
      }
    },
    {
      "type": "Feature",
      "id": "node/55640944",
      "properties": {
        "name": "Toronto Fire Station #323",
        "tags": {
          "addr:city": "Toronto",
          "addr:housenumber": "153",
          "addr:postcode": "M4J 1K8",
          "addr:street": "Chatham Avenue",
          "amenity": "fire_station",
          "building": "yes",
          "name": "Toronto Fire Station #323",
          "operator": "City of Toronto"
        }
      },
      "geometry": {
        "type": "Polygon",
        "coordinates": []
      }
    },
    {
      "type": "Feature",
      "id": "node/56010052",
      "properties": {
        "name": "Whitby Fire Station No. 5 (Headquarters)",
        "tags": {
          "amenity": "fire_station",
          "building": "yes",
          "name": "Whitby Fire Station No. 5 (Headquarters)",
          "source": "yahoo"
        }
      },
      "geometry": {
        "type": "Polygon",
        "coordinates": []
      }
    },
    {
      "type": "Feature",
      "id": "node/56298352",
      "properties": {
        "name": "Richmond Hill Fire Station 8-5",
        "tags": {
          "amenity": "fire_station",
          "building": "yes",
          "name": "Richmond Hill Fire Station 8-5",
          "source": "User:tomtong"
        }
      },
      "geometry": {
        "type": "Polygon",
        "coordinates": []
      }
    },
    {
      "type": "Feature",
      "id": "node/56675979",
      "properties": {
        "name": "Richmond Hill Fire Station 8-1",
        "tags": {
          "addr:city": "Richmond Hill",
          "addr:housenumber": "191",
          "addr:province": "Ontario",
          "addr:street": "Major Mackenzie Drive West",
          "amenity": "fire_station",
          "building": "yes",
          "building:levels": "1",
          "building:material": "brick",
          "colour": "brown",
          "name": "Richmond Hill Fire Station 8-1",
          "source": "yahoo"
        }
      },
      "geometry": {
        "type": "Polygon",
        "coordinates": []
      }
    },
    {
      "type": "Feature",
      "id": "node/56862433",
      "properties": {
        "name": "Markham Fire Station 94",
        "tags": {
          "addr:city": "Markham",
          "amenity": "fire_station",
          "building": "yes",
          "name": "Markham Fire Station 94"
        }
      },
      "geometry": {
        "type": "Polygon",
        "coordinates": []
      }
    },
    {
      "type": "Feature",
      "id": "node/56908047",
      "properties": {
        "name": "Unnamed Fire Station",
        "tags": {
          "amenity": "fire_station",
          "building": "yes",
          "source": "yahoo;knowledge"
        }
      },
      "geometry": {
        "type": "Polygon",
        "coordinates": []
      }
    },
    {
      "type": "Feature",
      "id": "node/57743553",
      "properties": {
        "name": "Toronto Fire and Marine Station 334 EMS station 36",
        "tags": {
          "addr:city": "Toronto",
          "addr:housenumber": "339",
          "addr:postcode": "M5J 3H3",
          "addr:street": "Queens Quay West",
          "amenity": "fire_station",
          "building": "yes",
          "emergency": "ambulance_station",
          "name": "Toronto Fire and Marine Station 334 EMS station 36",
          "source": "yahoo",
          "wikidata": "Q112036767"
        }
      },
      "geometry": {
        "type": "Polygon",
        "coordinates": []
      }
    },
    {
      "type": "Feature",
      "id": "node/58326461",
      "properties": {
        "name": "City of Richmond Hill Fire Department No. 8-3",
        "tags": {
          "alt_name": "Harold J. Mills",
          "amenity": "fire_station",
          "building": "yes",
          "check_date": "2024-07-07",
          "name": "City of Richmond Hill Fire Department No. 8-3",
          "name:en": "Richmond Hill Fire Station 8-3",
          "wikipedia": "en:Fire Services in York Region"
        }
      },
      "geometry": {
        "type": "Polygon",
        "coordinates": []
      }
    },
    {
      "type": "Feature",
      "id": "node/61511477",
      "properties": {
        "name": "Toronto Fire Station 332",
        "tags": {
          "addr:city": "Toronto",
          "addr:housenumber": "260",
          "addr:postcode": "M5H 1X6",
          "addr:street": "Adelaide Street West",
          "amenity": "fire_station",
          "building": "yes",
          "name": "Toronto Fire Station 332",
          "ref": "332",
          "source": "yahoo",
          "wikidata": "Q112032415"
        }
      },
      "geometry": {
        "type": "Polygon",
        "coordinates": []
      }
    },
    {
      "type": "Feature",
      "id": "node/62004710",
      "properties": {
        "name": "Toronto Fire Station 313",
        "tags": {
          "addr:city": "Toronto",
          "addr:housenumber": "441",
          "addr:postcode": "M4W 1J1",
          "addr:street": "Bloor Street East",
          "amenity": "fire_station",
          "building": "yes",
          "name": "Toronto Fire Station 313",
          "source": "local_knowledge",
          "wikidata": "Q112032342"
        }
      },
      "geometry": {
        "type": "Polygon",
        "coordinates": []
      }
    },
    {
      "type": "Feature",
      "id": "node/66969036",
      "properties": {
        "name": "Toronto Fire Station 131",
        "tags": {
          "addr:city": "Toronto",
          "addr:housenumber": "3135",
          "addr:street": "Yonge Street",
          "amenity": "fire_station",
          "building": "public",
          "name": "Toronto Fire Station 131",
          "opendata:type": "103002",
          "wikidata": "Q112108256"
        }
      },
      "geometry": {
        "type": "Polygon",
        "coordinates": []
      }
    },
    {
      "type": "Feature",
      "id": "node/67141806",
      "properties": {
        "name": "Toronto Fire Station 245",
        "tags": {
          "amenity": "fire_station",
          "building": "yes",
          "name": "Toronto Fire Station 245"
        }
      },
      "geometry": {
        "type": "Polygon",
        "coordinates": []
      }
    },
    {
      "type": "Feature",
      "id": "node/67923135",
      "properties": {
        "name": "Toronto Fire Station #311",
        "tags": {
          "addr:city": "Toronto",
          "addr:housenumber": "20",
          "addr:postcode": "M4V 1J4",
          "addr:street": "Balmoral Avenue",
          "amenity": "fire_station",
          "building": "yes",
          "building:colour": "red",
          "building:levels": "3",
          "building:material": "brick",
          "built_date": "1911",
          "check_date": "2024-08-29",
          "name": "Toronto Fire Station #311",
          "opendata:type": "115001",
          "source": "local_knowledge"
        }
      },
      "geometry": {
        "type": "Polygon",
        "coordinates": []
      }
    },
    {
      "type": "Feature",
      "id": "node/68021042",
      "properties": {
        "name": "Fire Station 123",
        "tags": {
          "addr:city": "North York",
          "addr:housenumber": "143",
          "addr:street": "Bond Avenue",
          "amenity": "fire_station",
          "building": "fire_station",
          "name": "Fire Station 123",
          "opendata:type": "103002"
        }
      },
      "geometry": {
        "type": "Polygon",
        "coordinates": []
      }
    },
    {
      "type": "Feature",
      "id": "node/68169299",
      "properties": {
        "name": "Toronto Fire Station 325",
        "tags": {
          "addr:city": "Toronto",
          "addr:housenumber": "475",
          "addr:street": "Dundas Street East",
          "amenity": "fire_station",
          "building": "yes",
          "building:colour": "beige",
          "building:levels": "2",
          "building:material": "brick",
          "name": "Toronto Fire Station 325",
          "source": "CanVec 6.0 - NRCan",
          "wikidata": "Q112032412"
        }
      },
      "geometry": {
        "type": "Polygon",
        "coordinates": []
      }
    },
    {
      "type": "Feature",
      "id": "node/76810852",
      "properties": {
        "name": "Oshawa Station #3",
        "tags": {
          "addr:housenumber": "50",
          "addr:street": "Beatrice Street East",
          "amenity": "fire_station",
          "building": "fire_station",
          "name": "Oshawa Station #3"
        }
      },
      "geometry": {
        "type": "Polygon",
        "coordinates": []
      }
    },
    {
      "type": "Feature",
      "id": "node/76813715",
      "properties": {
        "name": "Oshawa Fire Services Headquarters",
        "tags": {
          "addr:housenumber": "199",
          "addr:street": "Adelaide Avenue West",
          "amenity": "fire_station",
          "building": "yes",
          "name": "Oshawa Fire Services Headquarters",
          "source": "CanVec 6.0 - NRCan"
        }
      },
      "geometry": {
        "type": "Polygon",
        "coordinates": []
      }
    },
    {
      "type": "Feature",
      "id": "node/78486013",
      "properties": {
        "name": "Toronto Fire Station 143",
        "tags": {
          "amenity": "fire_station",
          "building": "commercial",
          "name": "Toronto Fire Station 143",
          "source": "yahoo",
          "wikidata": "Q112108255"
        }
      },
      "geometry": {
        "type": "Polygon",
        "coordinates": []
      }
    },
    {
      "type": "Feature",
      "id": "node/79157054",
      "properties": {
        "name": "Vaughan Fire Station 7-1",
        "tags": {
          "addr:city": "Vaughan",
          "addr:housenumber": "835",
          "addr:postcode": "L4J 7M1",
          "addr:street": "Clark Avenue West",
          "amenity": "fire_station",
          "building": "public",
          "building:levels": "2",
          "name": "Vaughan Fire Station 7-1",
          "operator": "City of Vaughan",
          "website": "https://www.vaughan.ca/services/residential/fire_and_rescue/operations/Pages/default.aspx"
        }
      },
      "geometry": {
        "type": "Polygon",
        "coordinates": []
      }
    },
    {
      "type": "Feature",
      "id": "node/92833105",
      "properties": {
        "name": "Whitby Fire Station No. 2",
        "tags": {
          "amenity": "fire_station",
          "building": "yes",
          "name": "Whitby Fire Station No. 2",
          "source": "Bing"
        }
      },
      "geometry": {
        "type": "Polygon",
        "coordinates": []
      }
    },
    {
      "type": "Feature",
      "id": "node/104944359",
      "properties": {
        "name": "Toronto Fire Station 135",
        "tags": {
          "amenity": "fire_station",
          "building": "public",
          "building:levels": "2",
          "name": "Toronto Fire Station 135",
          "source": "Bing"
        }
      },
      "geometry": {
        "type": "Polygon",
        "coordinates": []
      }
    },
    {
      "type": "Feature",
      "id": "node/105780345",
      "properties": {
        "name": "Toronto Fire Station 134",
        "tags": {
          "amenity": "fire_station",
          "building": "yes",
          "created_by": "iLOE 1.9",
          "name": "Toronto Fire Station 134",
          "source": "Bing"
        }
      },
      "geometry": {
        "type": "Polygon",
        "coordinates": []
      }
    },
    {
      "type": "Feature",
      "id": "node/108700348",
      "properties": {
        "name": "Fire Station 115, Ambulance Station 23",
        "tags": {
          "addr:city": "North York",
          "addr:housenumber": "115",
          "addr:street": "Parkway Forest Drive",
          "amenity": "fire_station",
          "building": "civic",
          "name": "Fire Station 115, Ambulance Station 23",
          "opendata:type": "103005"
        }
      },
      "geometry": {
        "type": "Polygon",
        "coordinates": []
      }
    },
    {
      "type": "Feature",
      "id": "node/109199283",
      "properties": {
        "name": "Toronto Fire Station 113",
        "tags": {
          "addr:city": "North York",
          "addr:housenumber": "700",
          "addr:street": "Seneca Hill Drive",
          "amenity": "fire_station",
          "building": "fire_station",
          "building:levels": "2",
          "name": "Toronto Fire Station 113"
        }
      },
      "geometry": {
        "type": "Polygon",
        "coordinates": []
      }
    },
    {
      "type": "Feature",
      "id": "node/114901127",
      "properties": {
        "name": "Toronto Fire Station 227",
        "tags": {
          "addr:city": "Toronto",
          "addr:housenumber": "1904",
          "addr:street": "Queen Street East",
          "amenity": "fire_station",
          "building": "fire_station",
          "name": "Toronto Fire Station 227",
          "source": "Bing",
          "wikidata": "Q124857923"
        }
      },
      "geometry": {
        "type": "Polygon",
        "coordinates": []
      }
    },
    {
      "type": "Feature",
      "id": "node/120882312",
      "properties": {
        "name": "Fire Station 112, Ambulance Station 5",
        "tags": {
          "addr:city": "North York",
          "addr:housenumber": "5700",
          "addr:street": "Bathurst Street",
          "amenity": "fire_station",
          "building": "yes",
          "emergency": "ambulance_station",
          "name": "Fire Station 112, Ambulance Station 5",
          "opendata:type": "103005",
          "source": "Bing",
          "wikidata": "Q112108259"
        }
      },
      "geometry": {
        "type": "Polygon",
        "coordinates": []
      }
    },
    {
      "type": "Feature",
      "id": "node/123065109",
      "properties": {
        "name": "Markham Fire - Station 9-8",
        "tags": {
          "addr:housename": "Markham Fire - Station 9-8",
          "addr:housenumber": "650",
          "addr:street": "Bur Oak Dr.",
          "amenity": "fire_station",
          "building": "yes",
          "name": "Markham Fire - Station 9-8",
          "source": "Bing"
        }
      },
      "geometry": {
        "type": "Polygon",
        "coordinates": []
      }
    },
    {
      "type": "Feature",
      "id": "node/123814411",
      "properties": {
        "name": "Fire Station 331",
        "tags": {
          "addr:city": "Toronto",
          "addr:housenumber": "33",
          "addr:street": "Claremont Street",
          "amenity": "fire_station",
          "building": "yes",
          "name": "Fire Station 331",
          "opendata:type": "103002",
          "source": "Bing"
        }
      },
      "geometry": {
        "type": "Polygon",
        "coordinates": []
      }
    },
    {
      "type": "Feature",
      "id": "node/124105159",
      "properties": {
        "name": "Toronto Fire Station 133",
        "tags": {
          "amenity": "fire_station",
          "building": "public",
          "name": "Toronto Fire Station 133",
          "source": "Bing"
        }
      },
      "geometry": {
        "type": "Polygon",
        "coordinates": []
      }
    },
    {
      "type": "Feature",
      "id": "node/130468302",
      "properties": {
        "name": "Toronto Fire Station 125",
        "tags": {
          "amenity": "fire_station",
          "building": "yes",
          "name": "Toronto Fire Station 125",
          "source": "Bing"
        }
      },
      "geometry": {
        "type": "Polygon",
        "coordinates": []
      }
    },
    {
      "type": "Feature",
      "id": "node/132647325",
      "properties": {
        "name": "Toronto Fire Station 333",
        "tags": {
          "addr:city": "Toronto",
          "addr:housenumber": "207",
          "addr:postcode": "M5A 2B5",
          "addr:street": "Front Street East",
          "amenity": "fire_station",
          "building": "yes",
          "building:colour": "red",
          "building:levels": "2",
          "building:material": "brick",
          "name": "Toronto Fire Station 333",
          "wikidata": "Q112032406"
        }
      },
      "geometry": {
        "type": "Polygon",
        "coordinates": []
      }
    },
    {
      "type": "Feature",
      "id": "node/134818544",
      "properties": {
        "name": "Toronto Fire Station 122",
        "tags": {
          "addr:city": "North York",
          "addr:housenumber": "2545",
          "addr:street": "Bayview Avenue",
          "amenity": "fire_station",
          "building": "yes",
          "building:levels": "2",
          "name": "Toronto Fire Station 122",
          "opendata:type": "103002",
          "source": "Bing",
          "wikidata": "Q124858311"
        }
      },
      "geometry": {
        "type": "Polygon",
        "coordinates": []
      }
    },
    {
      "type": "Feature",
      "id": "node/134823356",
      "properties": {
        "name": "Fire Station 121",
        "tags": {
          "addr:city": "North York",
          "addr:housenumber": "10",
          "addr:street": "William Carson Crescent",
          "amenity": "fire_station",
          "building": "public",
          "name": "Fire Station 121",
          "opendata:type": "103002",
          "source": "Bing",
          "wikidata": "Q112108257"
        }
      },
      "geometry": {
        "type": "Polygon",
        "coordinates": []
      }
    },
    {
      "type": "Feature",
      "id": "node/143179010",
      "properties": {
        "name": "Toronto City Centre Airport Firehall",
        "tags": {
          "amenity": "fire_station",
          "building": "yes",
          "name": "Toronto City Centre Airport Firehall"
        }
      },
      "geometry": {
        "type": "Polygon",
        "coordinates": []
      }
    },
    {
      "type": "Feature",
      "id": "node/143604554",
      "properties": {
        "name": "Markham Fire - Station 9-7",
        "tags": {
          "addr:city": "Markham",
          "addr:housename": "Markham Fire - Station 9-7",
          "addr:housenumber": "209",
          "addr:street": "Main Street Markham North",
          "amenity": "fire_station",
          "building": "yes",
          "building:colour": "red",
          "building:material": "brick",
          "name": "Markham Fire - Station 9-7"
        }
      },
      "geometry": {
        "type": "Polygon",
        "coordinates": []
      }
    },
    {
      "type": "Feature",
      "id": "node/146589948",
      "properties": {
        "name": "Markham Fire Station 9-1",
        "tags": {
          "addr:city": "Thornhill",
          "addr:housenumber": "7801",
          "addr:province": "Ontario",
          "addr:street": "Bayview Avenue",
          "amenity": "fire_station",
          "building": "yes",
          "name": "Markham Fire Station 9-1"
        }
      },
      "geometry": {
        "type": "Polygon",
        "coordinates": []
      }
    },
    {
      "type": "Feature",
      "id": "node/161133125",
      "properties": {
        "name": "Markham Fire Station 95",
        "tags": {
          "addr:city": "Unionville",
          "addr:housenumber": "316",
          "addr:street": "Main Street",
          "amenity": "fire_station",
          "building": "yes",
          "name": "Markham Fire Station 95",
          "source": "Bing"
        }
      },
      "geometry": {
        "type": "Polygon",
        "coordinates": []
      }
    },
    {
      "type": "Feature",
      "id": "node/165120190",
      "properties": {
        "name": "Richmond Hill Fire Department Station 82",
        "tags": {
          "addr:housenumber": "13067",
          "addr:street": "Yonge Street",
          "amenity": "fire_station",
          "building": "yes",
          "name": "Richmond Hill Fire Department Station 82",
          "source": "Bing"
        }
      },
      "geometry": {
        "type": "Polygon",
        "coordinates": []
      }
    },
    {
      "type": "Feature",
      "id": "node/167395466",
      "properties": {
        "name": "Oshawa Station #5",
        "tags": {
          "amenity": "fire_station",
          "building": "fire_station",
          "name": "Oshawa Station #5"
        }
      },
      "geometry": {
        "type": "Polygon",
        "coordinates": []
      }
    },
    {
      "type": "Feature",
      "id": "node/169508541",
      "properties": {
        "name": "Unnamed Fire Station",
        "tags": {
          "amenity": "fire_station",
          "building": "yes",
          "source": "CanVec 6.0 - NRCan"
        }
      },
      "geometry": {
        "type": "Polygon",
        "coordinates": []
      }
    },
    {
      "type": "Feature",
      "id": "node/169783037",
      "properties": {
        "name": "Brock township Fire Department Station Number 1",
        "tags": {
          "amenity": "fire_station",
          "building": "public",
          "name": "Brock township Fire Department Station Number 1",
          "source": "Bing"
        }
      },
      "geometry": {
        "type": "Polygon",
        "coordinates": []
      }
    },
    {
      "type": "Feature",
      "id": "node/170749499",
      "properties": {
        "name": "Central York Fire Station 4-1",
        "tags": {
          "addr:city": "Newmarket",
          "addr:housenumber": "984",
          "addr:street": "Gorham Street",
          "amenity": "fire_station",
          "building": "yes",
          "name": "Central York Fire Station 4-1",
          "source": "Bing"
        }
      },
      "geometry": {
        "type": "Polygon",
        "coordinates": []
      }
    },
    {
      "type": "Feature",
      "id": "node/180353347",
      "properties": {
        "name": "Toronto Fire Station 345",
        "tags": {
          "amenity": "fire_station",
          "building": "yes",
          "building:colour": "red",
          "building:levels": "2",
          "building:material": "brick",
          "name": "Toronto Fire Station 345",
          "roof:colour": "gray",
          "roof:shape": "flat",
          "source": "Bing"
        }
      },
      "geometry": {
        "type": "Polygon",
        "coordinates": []
      }
    },
    {
      "type": "Feature",
      "id": "node/180731108",
      "properties": {
        "name": "Whitby Fire Station No. 1",
        "tags": {
          "amenity": "fire_station",
          "building": "yes",
          "name": "Whitby Fire Station No. 1"
        }
      },
      "geometry": {
        "type": "Polygon",
        "coordinates": []
      }
    },
    {
      "type": "Feature",
      "id": "node/191843386",
      "properties": {
        "name": "Toronto Fire Station 235",
        "tags": {
          "addr:city": "North York",
          "addr:housenumber": "200",
          "addr:street": "Bermondsey Road",
          "amenity": "fire_station",
          "building": "yes",
          "name": "Toronto Fire Station 235",
          "opendata:type": "103002"
        }
      },
      "geometry": {
        "type": "Polygon",
        "coordinates": []
      }
    },
    {
      "type": "Feature",
      "id": "node/193249081",
      "properties": {
        "name": "Fire Station 335, Ambulance Station 48",
        "tags": {
          "addr:city": "Toronto",
          "addr:housenumber": "235",
          "addr:postcode": "M5J 1X9",
          "addr:street": "Cibola Avenue",
          "amenity": "fire_station",
          "building": "yes",
          "emergency": "ambulance_station",
          "name": "Fire Station 335, Ambulance Station 48",
          "opendata:type": "103005",
          "wikidata": "Q112036772"
        }
      },
      "geometry": {
        "type": "Polygon",
        "coordinates": []
      }
    },
    {
      "type": "Feature",
      "id": "node/195667596",
      "properties": {
        "name": "Ramara Township Fire Station No. 3",
        "tags": {
          "amenity": "fire_station",
          "building": "yes",
          "name": "Ramara Township Fire Station No. 3",
          "source": "NRCan-CanVec-10.0"
        }
      },
      "geometry": {
        "type": "Polygon",
        "coordinates": []
      }
    },
    {
      "type": "Feature",
      "id": "node/195846571",
      "properties": {
        "name": "Toronto Fire Station 315",
        "tags": {
          "addr:city": "Toronto",
          "addr:housenumber": "132",
          "addr:street": "Bellevue Avenue",
          "amenity": "fire_station",
          "building": "yes",
          "building:material": "brick",
          "name": "Toronto Fire Station 315",
          "source": "Bing",
          "wikidata": "Q111490760"
        }
      },
      "geometry": {
        "type": "Polygon",
        "coordinates": []
      }
    },
    {
      "type": "Feature",
      "id": "node/197081077",
      "properties": {
        "name": "Toronto Fire Station 212, Toronto EMS Station 25",
        "tags": {
          "addr:city": "Toronto",
          "amenity": "fire_station",
          "building": "civic",
          "emergency": "ambulance_station",
          "name": "Toronto Fire Station 212, Toronto EMS Station 25",
          "source": "Bing"
        }
      },
      "geometry": {
        "type": "Polygon",
        "coordinates": []
      }
    },
    {
      "type": "Feature",
      "id": "node/202622533",
      "properties": {
        "name": "Toronto Fire Station 312",
        "tags": {
          "addr:city": "Toronto",
          "addr:housenumber": "34",
          "addr:postcode": "M4W 1L5",
          "addr:street": "Yorkville Avenue",
          "amenity": "fire_station",
          "building": "yes",
          "building:colour": "beige",
          "building:material": "brick",
          "name": "Toronto Fire Station 312",
          "source": "local_knowledge",
          "wikidata": "Q124857883"
        }
      },
      "geometry": {
        "type": "Polygon",
        "coordinates": []
      }
    },
    {
      "type": "Feature",
      "id": "node/207234268",
      "properties": {
        "name": "Toronto Fire Station 116",
        "tags": {
          "amenity": "fire_station",
          "building": "yes",
          "name": "Toronto Fire Station 116",
          "wikidata": "Q124858343"
        }
      },
      "geometry": {
        "type": "Polygon",
        "coordinates": []
      }
    },
    {
      "type": "Feature",
      "id": "node/213368373",
      "properties": {
        "name": "Marmora & Lake Fire Station",
        "tags": {
          "addr:street": "Matthew Street",
          "amenity": "fire_station",
          "building": "yes",
          "name": "Marmora & Lake Fire Station"
        }
      },
      "geometry": {
        "type": "Polygon",
        "coordinates": []
      }
    },
    {
      "type": "Feature",
      "id": "node/216566919",
      "properties": {
        "name": "Toronto Fire Station 314",
        "tags": {
          "addr:city": "Toronto",
          "addr:housenumber": "12",
          "addr:province": "ON",
          "addr:street": "Grosvenor Street",
          "amenity": "fire_station",
          "building": "yes",
          "name": "Toronto Fire Station 314",
          "source": "Bing",
          "wikidata": "Q112032409"
        }
      },
      "geometry": {
        "type": "Polygon",
        "coordinates": []
      }
    },
    {
      "type": "Feature",
      "id": "node/226011263",
      "properties": {
        "name": "Toronto Fire Station 241",
        "tags": {
          "addr:city": "Toronto",
          "addr:housenumber": "3325",
          "addr:province": "Ontario",
          "addr:street": "Warden Avenue",
          "amenity": "fire_station",
          "building": "yes",
          "check_date": "2025-04-16",
          "name": "Toronto Fire Station 241",
          "opendata:type": "103002",
          "operator": "City of Toronto"
        }
      },
      "geometry": {
        "type": "Polygon",
        "coordinates": []
      }
    },
    {
      "type": "Feature",
      "id": "node/229941741",
      "properties": {
        "name": "Unnamed Fire Station",
        "tags": {
          "amenity": "fire_station",
          "building": "yes"
        }
      },
      "geometry": {
        "type": "Polygon",
        "coordinates": []
      }
    },
    {
      "type": "Feature",
      "id": "node/231659486",
      "properties": {
        "name": "Toronto Fire Station 111 EMS Station 20",
        "tags": {
          "addr:housenumber": "3300",
          "addr:street": "Bayview Avenue",
          "amenity": "fire_station",
          "building": "yes",
          "name": "Toronto Fire Station 111 EMS Station 20",
          "wikidata": "Q124858363"
        }
      },
      "geometry": {
        "type": "Polygon",
        "coordinates": []
      }
    },
    {
      "type": "Feature",
      "id": "node/235024947",
      "properties": {
        "name": "Markham Fire Station 93",
        "tags": {
          "addr:city": "Markham",
          "addr:province": "Ontario",
          "addr:street": "Major MacKenzie Drive East",
          "amenity": "fire_station",
          "building": "yes",
          "name": "Markham Fire Station 93"
        }
      },
      "geometry": {
        "type": "Polygon",
        "coordinates": []
      }
    },
    {
      "type": "Feature",
      "id": "node/241179151",
      "properties": {
        "name": "Fire Station #99",
        "tags": {
          "addr:city": "Markham",
          "amenity": "fire_station",
          "building": "yes",
          "name": "Fire Station #99"
        }
      },
      "geometry": {
        "type": "Polygon",
        "coordinates": []
      }
    },
    {
      "type": "Feature",
      "id": "node/241193515",
      "properties": {
        "name": "Unnamed Fire Station",
        "tags": {
          "addr:city": "Courtice",
          "addr:housenumber": "2611",
          "addr:postcode": "L1E 2N3",
          "addr:province": "ON",
          "addr:street": "Trulls Road",
          "amenity": "fire_station",
          "building": "commercial"
        }
      },
      "geometry": {
        "type": "Polygon",
        "coordinates": []
      }
    },
    {
      "type": "Feature",
      "id": "node/243706746",
      "properties": {
        "name": "Markham Fire Station 96",
        "tags": {
          "addr:city": "Markham",
          "addr:housenumber": "5567",
          "addr:street": "14th Avenue",
          "amenity": "fire_station",
          "building": "yes",
          "name": "Markham Fire Station 96",
          "website": "https://www.markham.ca/wps/portal/Markham/Residents/FireServices/Operations/FireStations"
        }
      },
      "geometry": {
        "type": "Polygon",
        "coordinates": []
      }
    },
    {
      "type": "Feature",
      "id": "node/257268135",
      "properties": {
        "name": "Marmora Station",
        "tags": {
          "addr:housenumber": "5",
          "addr:street": "Matthew Street",
          "amenity": "fire_station",
          "building": "public",
          "name": "Marmora Station",
          "wikipedia": "en:Marmora and Lake"
        }
      },
      "geometry": {
        "type": "Polygon",
        "coordinates": []
      }
    },
    {
      "type": "Feature",
      "id": "node/263823998",
      "properties": {
        "name": "Toronto Fire Station #322",
        "tags": {
          "amenity": "fire_station",
          "building": "yes",
          "name": "Toronto Fire Station #322"
        }
      },
      "geometry": {
        "type": "Polygon",
        "coordinates": []
      }
    },
    {
      "type": "Feature",
      "id": "node/265630956",
      "properties": {
        "name": "Fire Station 341",
        "tags": {
          "amenity": "fire_station",
          "building": "yes",
          "name": "Fire Station 341"
        }
      },
      "geometry": {
        "type": "Polygon",
        "coordinates": []
      }
    },
    {
      "type": "Feature",
      "id": "node/271653293",
      "properties": {
        "name": "Durham College Pre-Service Firefighter Student",
        "tags": {
          "amenity": "fire_station",
          "building": "yes",
          "name": "Durham College Pre-Service Firefighter Student"
        }
      },
      "geometry": {
        "type": "Polygon",
        "coordinates": []
      }
    },
    {
      "type": "Feature",
      "id": "node/279930252",
      "properties": {
        "name": "City of Kawartha Lakes Fire Rescue Service Coboconk Hall #19",
        "tags": {
          "amenity": "fire_station",
          "building": "yes",
          "name": "City of Kawartha Lakes Fire Rescue Service Coboconk Hall #19"
        }
      },
      "geometry": {
        "type": "Polygon",
        "coordinates": []
      }
    },
    {
      "type": "Feature",
      "id": "node/280803826",
      "properties": {
        "name": "Toronto Fire Station 141",
        "tags": {
          "amenity": "fire_station",
          "building": "yes",
          "building:colour": "beige",
          "building:levels": "1",
          "building:material": "brick",
          "name": "Toronto Fire Station 141"
        }
      },
      "geometry": {
        "type": "Polygon",
        "coordinates": []
      }
    },
    {
      "type": "Feature",
      "id": "node/281328742",
      "properties": {
        "name": "Keswick Fire Hall - Station 1-4",
        "tags": {
          "addr:city": "Keswick",
          "addr:housenumber": "165",
          "addr:postcode": "L4P 3S9",
          "addr:province": "Ontario",
          "addr:street": "The Queensway South",
          "amenity": "fire_station",
          "building": "yes",
          "name": "Keswick Fire Hall - Station 1-4"
        }
      },
      "geometry": {
        "type": "Polygon",
        "coordinates": []
      }
    },
    {
      "type": "Feature",
      "id": "node/285256087",
      "properties": {
        "name": "Oshawa Station #2",
        "tags": {
          "addr:city": "Oshawa",
          "addr:housenumber": "1111",
          "addr:street": "Simcoe Street South",
          "amenity": "fire_station",
          "building": "yes",
          "name": "Oshawa Station #2",
          "website": "https://www.oshawa.ca/fire/default.asp"
        }
      },
      "geometry": {
        "type": "Polygon",
        "coordinates": []
      }
    },
    {
      "type": "Feature",
      "id": "node/285330492",
      "properties": {
        "name": "Oshawa Station #4",
        "tags": {
          "addr:housenumber": "50",
          "addr:street": "Harmony Road North",
          "amenity": "fire_station",
          "building": "public",
          "name": "Oshawa Station #4"
        }
      },
      "geometry": {
        "type": "Polygon",
        "coordinates": []
      }
    },
    {
      "type": "Feature",
      "id": "node/308728929",
      "properties": {
        "name": "Fire Hall",
        "tags": {
          "amenity": "fire_station",
          "building": "yes",
          "name": "Fire Hall"
        }
      },
      "geometry": {
        "type": "Polygon",
        "coordinates": []
      }
    },
    {
      "type": "Feature",
      "id": "node/310883394",
      "properties": {
        "name": "Town of Ajax Fire Headquaters",
        "tags": {
          "addr:city": "Ajax",
          "addr:housenumber": "900",
          "addr:postcode": "L1T 0H4",
          "addr:street": "Salem Road",
          "amenity": "fire_station",
          "building": "civic",
          "name": "Town of Ajax Fire Headquaters"
        }
      },
      "geometry": {
        "type": "Polygon",
        "coordinates": []
      }
    },
    {
      "type": "Feature",
      "id": "node/319336769",
      "properties": {
        "name": "Fire Station 8-4",
        "tags": {
          "alt_name": "Russell \"Curly\" Lynett",
          "amenity": "fire_station",
          "building": "yes",
          "name": "Fire Station 8-4"
        }
      },
      "geometry": {
        "type": "Polygon",
        "coordinates": []
      }
    },
    {
      "type": "Feature",
      "id": "node/331385268",
      "properties": {
        "name": "Station #7 Frankford Ward",
        "tags": {
          "addr:housenumber": "18",
          "addr:street": "Scott Avenue",
          "amenity": "fire_station",
          "building": "yes",
          "name": "Station #7 Frankford Ward"
        }
      },
      "geometry": {
        "type": "Polygon",
        "coordinates": []
      }
    },
    {
      "type": "Feature",
      "id": "node/354141030",
      "properties": {
        "name": "Toronto Fire Station 234",
        "tags": {
          "addr:city": "Toronto",
          "addr:housenumber": "26",
          "addr:street": "Coronation Drive",
          "amenity": "fire_station",
          "building": "civic",
          "check_date": "2024-02-14",
          "name": "Toronto Fire Station 234"
        }
      },
      "geometry": {
        "type": "Polygon",
        "coordinates": []
      }
    },
    {
      "type": "Feature",
      "id": "node/359212415",
      "properties": {
        "name": "Toronto Fire Station 423",
        "tags": {
          "addr:housenumber": "358",
          "addr:street": "Keele Street",
          "amenity": "fire_station",
          "building": "yes",
          "building:colour": "beige",
          "building:levels": "2",
          "building:material": "brick",
          "name": "Toronto Fire Station 423",
          "operator": "Toronto Fire Services",
          "operator:wikidata": "Q2444356"
        }
      },
      "geometry": {
        "type": "Polygon",
        "coordinates": []
      }
    },
    {
      "type": "Feature",
      "id": "node/402926222",
      "properties": {
        "name": "Whitby Fire Station No. 4",
        "tags": {
          "amenity": "fire_station",
          "building": "yes",
          "name": "Whitby Fire Station No. 4",
          "source": "CanVec 6.0 - NRCan"
        }
      },
      "geometry": {
        "type": "Polygon",
        "coordinates": []
      }
    },
    {
      "type": "Feature",
      "id": "node/412714249",
      "properties": {
        "name": "Whitby Fire Station No. 3",
        "tags": {
          "addr:city": "Whitby",
          "addr:housenumber": "1501",
          "addr:province": "Ontario",
          "addr:street": "Victoria Street East",
          "amenity": "fire_station",
          "building": "yes",
          "building:colour": "red",
          "building:levels": "1",
          "building:material": "brick",
          "name": "Whitby Fire Station No. 3"
        }
      },
      "geometry": {
        "type": "Polygon",
        "coordinates": []
      }
    },
    {
      "type": "Feature",
      "id": "node/413203451",
      "properties": {
        "name": "Chippewas of Rama Fire and Rescue Service",
        "tags": {
          "amenity": "fire_station",
          "building": "yes",
          "name": "Chippewas of Rama Fire and Rescue Service"
        }
      },
      "geometry": {
        "type": "Polygon",
        "coordinates": []
      }
    },
    {
      "type": "Feature",
      "id": "node/413213633",
      "properties": {
        "name": "Brock Township Fire Department Hall #3",
        "tags": {
          "amenity": "fire_station",
          "building": "public",
          "name": "Brock Township Fire Department Hall #3"
        }
      },
      "geometry": {
        "type": "Polygon",
        "coordinates": []
      }
    },
    {
      "type": "Feature",
      "id": "node/416588173",
      "properties": {
        "name": "Fire Station 1-6",
        "tags": {
          "addr:city": "Sutton",
          "addr:housenumber": "37",
          "addr:postcode": "L0E 1R0",
          "addr:street": "Snooks Road",
          "amenity": "fire_station",
          "building": "public",
          "name": "Fire Station 1-6",
          "operator": "Town of Georgina"
        }
      },
      "geometry": {
        "type": "Polygon",
        "coordinates": []
      }
    },
    {
      "type": "Feature",
      "id": "node/417884577",
      "properties": {
        "name": "Toronto Fire Station 231",
        "tags": {
          "addr:city": "Toronto",
          "amenity": "fire_station",
          "building": "yes",
          "name": "Toronto Fire Station 231"
        }
      },
      "geometry": {
        "type": "Polygon",
        "coordinates": []
      }
    },
    {
      "type": "Feature",
      "id": "node/417989307",
      "properties": {
        "name": "Ramara Fire Station 1",
        "tags": {
          "addr:city": "Brechin",
          "addr:housenumber": "3290",
          "addr:province": "Ontario",
          "addr:street": "County Road 47",
          "amenity": "fire_station",
          "image": "https://www.ramara.ca/en/shared-content/resources/YUNC0009.jpg",
          "name": "Ramara Fire Station 1",
          "website": "https://www.ramara.ca/en/living-here/fire-stations.aspx"
        }
      },
      "geometry": {
        "type": "Polygon",
        "coordinates": []
      }
    },
    {
      "type": "Feature",
      "id": "node/432888543",
      "properties": {
        "name": "Toronto Fire Station 132",
        "tags": {
          "addr:city": "North York",
          "addr:housenumber": "476",
          "addr:street": "Lawrence Avenue West",
          "amenity": "fire_station",
          "building": "public",
          "building:colour": "red",
          "building:levels": "2",
          "building:material": "brick",
          "name": "Toronto Fire Station 132",
          "wikidata": "Q124858020"
        }
      },
      "geometry": {
        "type": "Polygon",
        "coordinates": []
      }
    },
    {
      "type": "Feature",
      "id": "node/440517456",
      "properties": {
        "name": "Toronto Fire Station 324",
        "tags": {
          "amenity": "fire_station",
          "building": "yes",
          "name": "Toronto Fire Station 324",
          "wikidata": "Q112032411"
        }
      },
      "geometry": {
        "type": "Polygon",
        "coordinates": []
      }
    },
    {
      "type": "Feature",
      "id": "node/467298594",
      "properties": {
        "name": "Central York Fire Station 4-2",
        "tags": {
          "addr:city": "Newmarket",
          "addr:housenumber": "125",
          "addr:street": "McCaffrey Road",
          "amenity": "fire_station",
          "building": "yes",
          "name": "Central York Fire Station 4-2"
        }
      },
      "geometry": {
        "type": "Polygon",
        "coordinates": []
      }
    },
    {
      "type": "Feature",
      "id": "node/479728953",
      "properties": {
        "name": "Pontypool Station 8",
        "tags": {
          "amenity": "fire_station",
          "building": "yes",
          "name": "Pontypool Station 8"
        }
      },
      "geometry": {
        "type": "Polygon",
        "coordinates": []
      }
    },
    {
      "type": "Feature",
      "id": "node/480311212",
      "properties": {
        "name": "Uxbridge Fire Hall",
        "tags": {
          "addr:city": "Uxbridge",
          "amenity": "fire_station",
          "building": "public",
          "level": "2",
          "name": "Uxbridge Fire Hall"
        }
      },
      "geometry": {
        "type": "Polygon",
        "coordinates": []
      }
    },
    {
      "type": "Feature",
      "id": "node/482283642",
      "properties": {
        "name": "Pefferlaw Fire Hall - Station 1-8",
        "tags": {
          "addr:city": "Pefferlaw",
          "addr:housenumber": "270",
          "addr:province": "Ontario",
          "addr:street": "Pefferlaw Road",
          "amenity": "fire_station",
          "building": "yes",
          "name": "Pefferlaw Fire Hall - Station 1-8",
          "operator": "Town of Georgina"
        }
      },
      "geometry": {
        "type": "Polygon",
        "coordinates": []
      }
    },
    {
      "type": "Feature",
      "id": "node/504016763",
      "properties": {
        "name": "Toronto Fire Station 422",
        "tags": {
          "addr:city": "Toronto",
          "addr:housenumber": "590",
          "addr:postcode": "M6S 4A6",
          "addr:street": "Jane Street",
          "amenity": "fire_station",
          "building": "public",
          "name": "Toronto Fire Station 422",
          "operator": "Toronto Fire Services"
        }
      },
      "geometry": {
        "type": "Polygon",
        "coordinates": []
      }
    },
    {
      "type": "Feature",
      "id": "node/520861486",
      "properties": {
        "name": "Arnot Wotten Fire Station No. 5",
        "tags": {
          "addr:city": "Town of Clarington (Enniskillen)",
          "addr:housenumber": "2354",
          "addr:street": "Concession Road 8",
          "amenity": "fire_station",
          "building": "yes",
          "name": "Arnot Wotten Fire Station No. 5",
          "note": "Manned by volunteer firefighters (2016). Renamed in May 2016 to honour former Clarington councillor Arnot Wotten who was instrumental in bringing a fire station to Enniskillen.",
          "operator": "Town of Clarington",
          "source": "CanVec 6.0 - NRCan"
        }
      },
      "geometry": {
        "type": "Polygon",
        "coordinates": []
      }
    },
    {
      "type": "Feature",
      "id": "node/528471115",
      "properties": {
        "name": "Unnamed Fire Station",
        "tags": {
          "amenity": "fire_station",
          "building": "public",
          "source": "CanVec 6.0 - NRCan"
        }
      },
      "geometry": {
        "type": "Polygon",
        "coordinates": []
      }
    },
    {
      "type": "Feature",
      "id": "node/543601641",
      "properties": {
        "name": "Unnamed Fire Station",
        "tags": {
          "addr:housenumber": "240",
          "addr:street": "Howland Avenue",
          "amenity": "fire_station",
          "building": "yes",
          "image": "https://upload.wikimedia.org/wikipedia/commons/b/be/Howland_240.jpg",
          "wikidata": "Q124857604"
        }
      },
      "geometry": {
        "type": "Polygon",
        "coordinates": []
      }
    },
    {
      "type": "Feature",
      "id": "node/558402285",
      "properties": {
        "name": "Peterborough Fire Station No. 3",
        "tags": {
          "amenity": "fire_station",
          "building": "yes",
          "building:levels": "1",
          "name": "Peterborough Fire Station No. 3"
        }
      },
      "geometry": {
        "type": "Polygon",
        "coordinates": []
      }
    },
    {
      "type": "Feature",
      "id": "node/567220091",
      "properties": {
        "name": "Alfred Allred Newcastle Fire Station #2",
        "tags": {
          "addr:housenumber": "3333",
          "addr:street": "Durham Highway 2",
          "amenity": "fire_station",
          "building": "yes",
          "name": "Alfred Allred Newcastle Fire Station #2"
        }
      },
      "geometry": {
        "type": "Polygon",
        "coordinates": []
      }
    },
    {
      "type": "Feature",
      "id": "node/584931062",
      "properties": {
        "name": "Unnamed Fire Station",
        "tags": {
          "amenity": "fire_station",
          "building": "yes",
          "disused": "yes"
        }
      },
      "geometry": {
        "type": "Polygon",
        "coordinates": []
      }
    },
    {
      "type": "Feature",
      "id": "node/659463557",
      "properties": {
        "name": "Toronto Fire Station 211",
        "tags": {
          "addr:city": "Toronto;Scarborough",
          "addr:housenumber": "90",
          "addr:postcode": "M1X 1C3",
          "addr:street": "Tapscott Road",
          "amenity": "fire_station",
          "building": "yes",
          "name": "Toronto Fire Station 211",
          "operator": "City of Toronto"
        }
      },
      "geometry": {
        "type": "Polygon",
        "coordinates": []
      }
    },
    {
      "type": "Feature",
      "id": "node/659622450",
      "properties": {
        "name": "Toronto Fire Station 425",
        "tags": {
          "addr:city": "Toronto",
          "addr:housenumber": "83",
          "addr:province": "Ontario",
          "addr:street": "Deforest Road",
          "amenity": "fire_station",
          "building": "detached",
          "building:levels": "1",
          "name": "Toronto Fire Station 425",
          "wikidata": "Q112036777"
        }
      },
      "geometry": {
        "type": "Polygon",
        "coordinates": []
      }
    },
    {
      "type": "Feature",
      "id": "node/659840620",
      "properties": {
        "name": "Toronto Fire Station 242",
        "tags": {
          "addr:city": "Toronto",
          "amenity": "fire_station",
          "building": "yes",
          "name": "Toronto Fire Station 242",
          "website": "https://www.toronto.ca/fire/stations/stations/242.htm"
        }
      },
      "geometry": {
        "type": "Polygon",
        "coordinates": []
      }
    },
    {
      "type": "Feature",
      "id": "node/660829879",
      "properties": {
        "name": "Toronto Fire Station 221",
        "tags": {
          "amenity": "fire_station",
          "building": "yes",
          "name": "Toronto Fire Station 221"
        }
      },
      "geometry": {
        "type": "Polygon",
        "coordinates": []
      }
    },
    {
      "type": "Feature",
      "id": "node/661145434",
      "properties": {
        "name": "Brock Township Fire Dept. Station 82",
        "tags": {
          "addr:city": "Cannington",
          "addr:housenumber": "26",
          "addr:province": "Ontario",
          "addr:street": "Laidlaw Street South",
          "amenity": "fire_station",
          "building": "service",
          "name": "Brock Township Fire Dept. Station 82"
        }
      },
      "geometry": {
        "type": "Polygon",
        "coordinates": []
      }
    },
    {
      "type": "Feature",
      "id": "node/661206003",
      "properties": {
        "name": "Birchmount Fire Hall #1",
        "tags": {
          "addr:city": "Toronto",
          "addr:housenumber": "351",
          "addr:street": "Birchmount Road",
          "amenity": "fire_station",
          "building": "detached",
          "name": "Birchmount Fire Hall #1"
        }
      },
      "geometry": {
        "type": "Polygon",
        "coordinates": []
      }
    },
    {
      "type": "Feature",
      "id": "node/661516712",
      "properties": {
        "name": "Unnamed Fire Station",
        "tags": {
          "addr:city": "Scugog",
          "amenity": "fire_station",
          "building": "public",
          "source": "CanVec 6.0 - NRCan"
        }
      },
      "geometry": {
        "type": "Polygon",
        "coordinates": []
      }
    },
    {
      "type": "Feature",
      "id": "node/661957725",
      "properties": {
        "name": "Toronto Fire Station 244",
        "tags": {
          "addr:city": "Scarborough",
          "addr:housenumber": "2340",
          "addr:street": "Birchmount Road",
          "amenity": "fire_station",
          "building": "yes",
          "name": "Toronto Fire Station 244",
          "opendata:type": "103002"
        }
      },
      "geometry": {
        "type": "Polygon",
        "coordinates": []
      }
    },
    {
      "type": "Feature",
      "id": "node/662767909",
      "properties": {
        "name": "Toronto Fire Station 342",
        "tags": {
          "addr:street": "Ascot Avenue",
          "amenity": "fire_station",
          "building": "yes",
          "building:levels": "2",
          "name": "Toronto Fire Station 342",
          "operator": "City of Toronto"
        }
      },
      "geometry": {
        "type": "Polygon",
        "coordinates": []
      }
    },
    {
      "type": "Feature",
      "id": "node/662808836",
      "properties": {
        "name": "Toronto Fire Station 226",
        "tags": {
          "amenity": "fire_station",
          "building": "fire_station",
          "built_date": "1910",
          "name": "Toronto Fire Station 226",
          "old_ref": "22",
          "wikidata": "Q112108243"
        }
      },
      "geometry": {
        "type": "Polygon",
        "coordinates": []
      }
    },
    {
      "type": "Feature",
      "id": "node/668049167",
      "properties": {
        "name": "Port Hope Fire Station No. 1",
        "tags": {
          "amenity": "fire_station",
          "building": "yes",
          "name": "Port Hope Fire Station No. 1",
          "source": "NRCan-CanVec-7.0"
        }
      },
      "geometry": {
        "type": "Polygon",
        "coordinates": []
      }
    },
    {
      "type": "Feature",
      "id": "node/689820780",
      "properties": {
        "name": "Brighton Fire Hall",
        "tags": {
          "amenity": "fire_station",
          "building": "yes",
          "name": "Brighton Fire Hall"
        }
      },
      "geometry": {
        "type": "Polygon",
        "coordinates": []
      }
    },
    {
      "type": "Feature",
      "id": "node/701225222",
      "properties": {
        "name": "Richmond Hill Fire Station 8-6",
        "tags": {
          "amenity": "fire_station",
          "name": "Richmond Hill Fire Station 8-6"
        }
      },
      "geometry": {
        "type": "Polygon",
        "coordinates": []
      }
    },
    {
      "type": "Feature",
      "id": "node/734780896",
      "properties": {
        "name": "Warkworth Fire Department",
        "tags": {
          "addr:housenumber": "24",
          "addr:street": "Old Hastings Road",
          "amenity": "fire_station",
          "building": "yes",
          "check_date": "2022-10-23",
          "name": "Warkworth Fire Department"
        }
      },
      "geometry": {
        "type": "Polygon",
        "coordinates": []
      }
    },
    {
      "type": "Feature",
      "id": "node/749420902",
      "properties": {
        "name": "Port Hope Fire Station 3",
        "tags": {
          "amenity": "fire_station",
          "building": "yes",
          "name": "Port Hope Fire Station 3",
          "source": "CanVec 6.0 - NRCan"
        }
      },
      "geometry": {
        "type": "Polygon",
        "coordinates": []
      }
    },
    {
      "type": "Feature",
      "id": "node/755504567",
      "properties": {
        "name": "Fire Station 1",
        "tags": {
          "amenity": "fire_station",
          "building": "fire_station",
          "name": "Fire Station 1"
        }
      },
      "geometry": {
        "type": "Polygon",
        "coordinates": []
      }
    },
    {
      "type": "Feature",
      "id": "node/755515543",
      "properties": {
        "name": "Unnamed Fire Station",
        "tags": {
          "amenity": "fire_station",
          "building": "yes"
        }
      },
      "geometry": {
        "type": "Polygon",
        "coordinates": []
      }
    },
    {
      "type": "Feature",
      "id": "node/771129076",
      "properties": {
        "name": "Vaughan Fire Station 7-10",
        "tags": {
          "addr:city": "Maple",
          "addr:housenumber": "10800",
          "addr:province": "Ontario",
          "addr:street": "Dufferin Street",
          "amenity": "fire_station",
          "building": "yes",
          "name": "Vaughan Fire Station 7-10",
          "operator": "City of Vaughan"
        }
      },
      "geometry": {
        "type": "Polygon",
        "coordinates": []
      }
    },
    {
      "type": "Feature",
      "id": "node/835151775",
      "properties": {
        "name": "Trent Hills Emergency Services Base",
        "tags": {
          "addr:city": "Campbellford",
          "addr:housenumber": "50",
          "addr:street": "Doxsee Avenue South",
          "amenity": "fire_station",
          "building": "yes",
          "fixme": "Building shape not correct, fix when new satellite imagery is available.",
          "name": "Trent Hills Emergency Services Base",
          "start_date": "2020"
        }
      },
      "geometry": {
        "type": "Polygon",
        "coordinates": []
      }
    },
    {
      "type": "Feature",
      "id": "node/846816426",
      "properties": {
        "name": "North Kanawha Emergency Services",
        "tags": {
          "addr:housenumber": "10193",
          "amenity": "fire_station",
          "building": "yes",
          "name": "North Kanawha Emergency Services"
        }
      },
      "geometry": {
        "type": "Polygon",
        "coordinates": []
      }
    },
    {
      "type": "Feature",
      "id": "node/849613878",
      "properties": {
        "name": "Unnamed Fire Station",
        "tags": {
          "amenity": "fire_station",
          "building": "yes",
          "source": "CanVec 6.0 - NRCan"
        }
      },
      "geometry": {
        "type": "Polygon",
        "coordinates": []
      }
    },
    {
      "type": "Feature",
      "id": "node/871892553",
      "properties": {
        "name": "Queensville Fire Station 2-8",
        "tags": {
          "addr:housenumber": "1590",
          "addr:street": "Queensville Sideroad East",
          "amenity": "fire_station",
          "building": "yes",
          "check_date": "2025-01-25",
          "designation": "Queensville Fire Station",
          "name": "Queensville Fire Station 2-8",
          "source": "http://www.eastgwillimbury.ca/Town_Hall/Departments/Emergency_Services/Fire_Station_Locations.htm"
        }
      },
      "geometry": {
        "type": "Polygon",
        "coordinates": []
      }
    },
    {
      "type": "Feature",
      "id": "node/879773923",
      "properties": {
        "name": "Cavan Monaghan Fire Services Headquarters",
        "tags": {
          "addr:housenumber": "50",
          "addr:street": "King Street East",
          "amenity": "fire_station",
          "building": "yes",
          "name": "Cavan Monaghan Fire Services Headquarters"
        }
      },
      "geometry": {
        "type": "Polygon",
        "coordinates": []
      }
    },
    {
      "type": "Feature",
      "id": "node/891825008",
      "properties": {
        "name": "Fire Station 346",
        "tags": {
          "addr:city": "Toronto",
          "addr:housenumber": "90",
          "addr:street": "Quebec Street",
          "amenity": "fire_station",
          "building": "yes",
          "name": "Fire Station 346",
          "wikidata": "Q112036774"
        }
      },
      "geometry": {
        "type": "Polygon",
        "coordinates": []
      }
    },
    {
      "type": "Feature",
      "id": "node/972971662",
      "properties": {
        "name": "East Gwillimbury Fire Station 2-4",
        "tags": {
          "addr:city": "East Gwillimbury",
          "addr:housenumber": "19314",
          "addr:province": "Ontario",
          "addr:street": "Yonge Street",
          "amenity": "fire_station",
          "building": "yes",
          "building:colour": "red",
          "building:material": "brick",
          "name": "East Gwillimbury Fire Station 2-4"
        }
      },
      "geometry": {
        "type": "Polygon",
        "coordinates": []
      }
    },
    {
      "type": "Feature",
      "id": "node/1107873578",
      "properties": {
        "name": "Toronto Fire Station 144",
        "tags": {
          "addr:city": "Toronto",
          "addr:housenumber": "2950",
          "addr:province": "Ontario",
          "addr:street": "Keele Street",
          "amenity": "fire_station",
          "architect": "Thomas Brown Architects Inc.",
          "building": "service",
          "building:levels": "1",
          "name": "Toronto Fire Station 144",
          "source": "https://www.toronto.ca/news/toronto-fire-services-officially-opens-new-fire-station-in-downsview-park/"
        }
      },
      "geometry": {
        "type": "Polygon",
        "coordinates": []
      }
    },
    {
      "type": "Feature",
      "id": "node/1136300766",
      "properties": {
        "name": "Unnamed Fire Station",
        "tags": {
          "amenity": "fire_station",
          "building": "fire_station"
        }
      },
      "geometry": {
        "type": "Polygon",
        "coordinates": []
      }
    },
    {
      "type": "Feature",
      "id": "node/1248850597",
      "properties": {
        "name": "Toronto Fire Station 426",
        "tags": {
          "amenity": "fire_station",
          "name": "Toronto Fire Station 426"
        }
      },
      "geometry": {
        "type": "Polygon",
        "coordinates": []
      }
    },
    {
      "type": "Feature",
      "id": "node/1296125867",
      "properties": {
        "name": "Unnamed Fire Station",
        "tags": {
          "amenity": "fire_station",
          "building": "yes"
        }
      },
      "geometry": {
        "type": "Polygon",
        "coordinates": []
      }
    },
    {
      "type": "Feature",
      "id": "node/1306374933",
      "properties": {
        "name": "Kawartha Lakes Fire Rescue Service - Station 5",
        "tags": {
          "amenity": "fire_station",
          "building": "yes",
          "name": "Kawartha Lakes Fire Rescue Service - Station 5",
          "source": "CanVec 6.0 - NRCan"
        }
      },
      "geometry": {
        "type": "Polygon",
        "coordinates": []
      }
    },
    {
      "type": "Feature",
      "id": "node/1344632734",
      "properties": {
        "name": "Orillia Fire Station 2",
        "tags": {
          "addr:city": "Orillia",
          "addr:housenumber": "1",
          "addr:province": "ON",
          "addr:street": "Commerce Road",
          "amenity": "fire_station",
          "building": "yes",
          "name": "Orillia Fire Station 2",
          "phone": "+17053255201"
        }
      },
      "geometry": {
        "type": "Polygon",
        "coordinates": []
      }
    },
    {
      "type": "Feature",
      "id": "node/1366643842",
      "properties": {
        "name": "Unnamed Fire Station",
        "tags": {
          "amenity": "fire_station"
        }
      },
      "geometry": {
        "type": "Polygon",
        "coordinates": []
      }
    }
  ]
}